$$SOE
2461281.500000000, A.D. 2026-Aug-29 00:00:00.0000, -1.080015546697686E+09, -5.509354269965747E+09, -5.890054503348145E+08,
2461288.500000000, A.D. 2026-Sep-05 00:00:00.0000, -1.076960269327153E+09, -5.509974320077733E+09, -5.894947391741133E+08,
2461295.500000000, A.D. 2026-Sep-12 00:00:00.0000, -1.073904672439774E+09, -5.510592931063781E+09, -5.899838689824939E+08,
2461302.500000000, A.D. 2026-Sep-19 00:00:00.0000, -1.070848758431054E+09, -5.511210103795064E+09, -5.904728394806643E+08,
2461309.500000000, A.D. 2026-Sep-26 00:00:00.0000, -1.067792529318124E+09, -5.511825839725565E+09, -5.909616504374824E+08,
2461316.500000000, A.D. 2026-Oct-03 00:00:00.0000, -1.064735986669492E+09, -5.512440140656696E+09, -5.914503016602755E+08,
2461323.500000000, A.D. 2026-Oct-10 00:00:00.0000, -1.061679131621385E+09, -5.513053008594627E+09, -5.919387929857278E+08,
2461330.500000000, A.D. 2026-Oct-17 00:00:00.0000, -1.058621964929036E+09, -5.513664445681156E+09, -5.924271242744093E+08,
2461337.500000000, A.D. 2026-Oct-24 00:00:00.0000, -1.055564487028524E+09, -5.514274454220659E+09, -5.929152954129794E+08,
2461344.500000000, A.D. 2026-Oct-31 00:00:00.0000, -1.052506698010406E+09, -5.514883036869774E+09, -5.934033063384061E+08,
2461351.500000000, A.D. 2026-Nov-07 00:00:00.0000, -1.049448597166066E+09, -5.515490196915705E+09, -5.938911571091161E+08,
2461358.500000000, A.D. 2026-Nov-14 00:00:00.0000, -1.046390181905911E+09, -5.516095937755757E+09, -5.943788479687481E+08,
2461365.500000000, A.D. 2026-Nov-21 00:00:00.0000, -1.043331447861173E+09, -5.516700260896192E+09, -5.948663791804075E+08,
2461372.500000000, A.D. 2026-Nov-28 00:00:00.0000, -1.040272391167393E+09, -5.517303165478488E+09, -5.953537507854257E+08,
2461379.500000000, A.D. 2026-Dec-05 00:00:00.0000, -1.037213009310058E+09, -5.517904649989339E+09, -5.958409626719594E+08,
2461386.500000000, A.D. 2026-Dec-12 00:00:00.0000, -1.034153300367476E+09, -5.518504713043368E+09, -5.963280147140412E+08,
2461393.500000000, A.D. 2026-Dec-19 00:00:00.0000, -1.031093262538136E+09, -5.519103353232197E+09, -5.968149068071706E+08,
2461400.500000000, A.D. 2026-Dec-26 00:00:00.0000, -1.028032894094995E+09, -5.519700568907888E+09, -5.973016388581371E+08,
2461407.500000000, A.D. 2027-Jan-02 00:00:00.0000, -1.024972193491116E+09, -5.520296358091810E+09, -5.977882107697806E+08,
2461414.500000000, A.D. 2027-Jan-09 00:00:00.0000, -1.021911159500311E+09, -5.520890718488966E+09, -5.982746224296484E+08,
2461421.500000000, A.D. 2027-Jan-16 00:00:00.0000, -1.018849791358525E+09, -5.521483647599111E+09, -5.987608737050006E+08,
2461428.500000000, A.D. 2027-Jan-23 00:00:00.0000, -1.015788088861359E+09, -5.522075142964574E+09, -5.992469644515924E+08,
2461435.500000000, A.D. 2027-Jan-30 00:00:00.0000, -1.012726052231617E+09, -5.522665202602683E+09, -5.997328945573955E+08,
2461442.500000000, A.D. 2027-Feb-06 00:00:00.0000, -1.009663681333789E+09, -5.523253825282967E+09, -6.002186640325103E+08,
2461449.500000000, A.D. 2027-Feb-13 00:00:00.0000, -1.006600974697333E+09, -5.523841009429567E+09, -6.007042730035045E+08,
2461456.500000000, A.D. 2027-Feb-20 00:00:00.0000, -1.003537930713965E+09, -5.524426751439966E+09, -6.011897214602070E+08,
2461463.500000000, A.D. 2027-Feb-27 00:00:00.0000, -1.000474549613981E+09, -5.525011046633724E+09, -6.016750091457844E+08,
2461470.500000000, A.D. 2027-Mar-06 00:00:00.0000, -9.974108332041214E+08, -5.525593890908710E+09, -6.021601357100329E+08,
2461477.500000000, A.D. 2027-Mar-13 00:00:00.0000, -9.943467839675053E+08, -5.526175281055326E+09, -6.026451008117881E+08,
2461484.500000000, A.D. 2027-Mar-20 00:00:00.0000, -9.912824046552179E+08, -5.526755214563409E+09, -6.031299041352825E+08,
2461491.500000000, A.D. 2027-Mar-27 00:00:00.0000, -9.882176981675677E+08, -5.527333689470713E+09, -6.036145453839633E+08,
2461498.500000000, A.D. 2027-Apr-03 00:00:00.0000, -9.851526675221262E+08, -5.527910704300748E+09, -6.040990242743959E+08,
2461505.500000000, A.D. 2027-Apr-10 00:00:00.0000, -9.820873158473045E+08, -5.528486258066879E+09, -6.045833405340617E+08,
2461512.500000000, A.D. 2027-Apr-17 00:00:00.0000, -9.790216463793923E+08, -5.529060350357018E+09, -6.050674939062908E+08,
2461519.500000000, A.D. 2027-Apr-24 00:00:00.0000, -9.759556623838468E+08, -5.529632981561045E+09, -6.055514841746898E+08,
2461526.500000000, A.D. 2027-May-01 00:00:00.0000, -9.728893667011942E+08, -5.530204153213200E+09, -6.060353112322986E+08,
2461533.500000000, A.D. 2027-May-08 00:00:00.0000, -9.698227606101551E+08, -5.530773867700971E+09, -6.065189751624773E+08,
2461540.500000000, A.D. 2027-May-15 00:00:00.0000, -9.667558435048653E+08, -5.531342126387119E+09, -6.070024761163099E+08,
2461547.500000000, A.D. 2027-May-22 00:00:00.0000, -9.636886149500489E+08, -5.531908928736410E+09, -6.074858140548425E+08,
2461554.500000000, A.D. 2027-May-29 00:00:00.0000, -9.606210757582254E+08, -5.532474273915291E+09, -6.079689887839062E+08,
2461561.500000000, A.D. 2027-Jun-05 00:00:00.0000, -9.575532272041085E+08, -5.533038161732801E+09, -6.084520001065922E+08,
2461568.500000000, A.D. 2027-Jun-12 00:00:00.0000, -9.544850703837218E+08, -5.533600592490915E+09, -6.089348478739178E+08,
2461575.500000000, A.D. 2027-Jun-19 00:00:00.0000, -9.514166060492594E+08, -5.534161566679279E+09, -6.094175319795580E+08,
2461582.500000000, A.D. 2027-Jun-26 00:00:00.0000, -9.483478346402704E+08, -5.534721084775730E+09, -6.099000523454404E+08,
2461589.500000000, A.D. 2027-Jul-03 00:00:00.0000, -9.452787563790368E+08, -5.535279147144248E+09, -6.103824089094553E+08,
2461596.500000000, A.D. 2027-Jul-10 00:00:00.0000, -9.422093713933113E+08, -5.535835754021637E+09, -6.108646016176846E+08,
2461603.500000000, A.D. 2027-Jul-17 00:00:00.0000, -9.391396798300533E+08, -5.536390905631793E+09, -6.113466304274197E+08,
2461610.500000000, A.D. 2027-Jul-24 00:00:00.0000, -9.360696818037497E+08, -5.536944602490363E+09, -6.118284953402052E+08,
2461617.500000000, A.D. 2027-Jul-31 00:00:00.0000, -9.329993767678810E+08, -5.537496845664279E+09, -6.123101964831593E+08,
2461624.500000000, A.D. 2027-Aug-07 00:00:00.0000, -9.299287625102609E+08, -5.538047635834448E+09, -6.127917341258628E+08,
2461631.500000000, A.D. 2027-Aug-14 00:00:00.0000, -9.268578360733604E+08, -5.538596971414901E+09, -6.132731084423599E+08,
2461638.500000000, A.D. 2027-Aug-21 00:00:00.0000, -9.237865959814094E+08, -5.539144849092588E+09, -6.137543193498662E+08,
2461645.500000000, A.D. 2027-Aug-28 00:00:00.0000, -9.207150423432021E+08, -5.539691265584583E+09, -6.142353666405592E+08,
2461652.500000000, A.D. 2027-Sep-04 00:00:00.0000, -9.176431760117621E+08, -5.540236218110442E+09, -6.147162500937543E+08,
2461659.500000000, A.D. 2027-Sep-11 00:00:00.0000, -9.145709981961757E+08, -5.540779704240944E+09, -6.151969694947414E+08,
2461666.500000000, A.D. 2027-Sep-18 00:00:00.0000, -9.114985103924127E+08, -5.541321721773370E+09, -6.156775246258645E+08,
2461673.500000000, A.D. 2027-Sep-25 00:00:00.0000, -9.084257144042702E+08, -5.541862268710639E+09, -6.161579152574494E+08,
2461680.500000000, A.D. 2027-Oct-02 00:00:00.0000, -9.053526123793765E+08, -5.542401343316477E+09, -6.166381411434710E+08,
2461687.500000000, A.D. 2027-Oct-09 00:00:00.0000, -9.022792068377349E+08, -5.542938944250669E+09, -6.171182020246561E+08,
2461694.500000000, A.D. 2027-Oct-16 00:00:00.0000, -8.992055006295445E+08, -5.543475070838888E+09, -6.175980976495039E+08,
2461701.500000000, A.D. 2027-Oct-23 00:00:00.0000, -8.961314965622864E+08, -5.544009723482380E+09, -6.180778278377323E+08,
2461708.500000000, A.D. 2027-Oct-30 00:00:00.0000, -8.930571963222339E+08, -5.544542903596829E+09, -6.185573925707753E+08,
2461715.500000000, A.D. 2027-Nov-06 00:00:00.0000, -8.899825998536997E+08, -5.545074611951997E+09, -6.190367919105208E+08,
2461722.500000000, A.D. 2027-Nov-13 00:00:00.0000, -8.869077071813860E+08, -5.545604847488076E+09, -6.195160257339652E+08,
2461729.500000000, A.D. 2027-Nov-20 00:00:00.0000, -8.838325197739186E+08, -5.546133608794528E+09, -6.199950937285321E+08,
2461736.500000000, A.D. 2027-Nov-27 00:00:00.0000, -8.807570398309649E+08, -5.546660895286755E+09, -6.204739955541809E+08,
2461743.500000000, A.D. 2027-Dec-04 00:00:00.0000, -8.776812695174737E+08, -5.547186707166645E+09, -6.209527309119461E+08,
2461750.500000000, A.D. 2027-Dec-11 00:00:00.0000, -8.746052106956084E+08, -5.547711045130857E+09, -6.214312995471568E+08,
2461757.500000000, A.D. 2027-Dec-18 00:00:00.0000, -8.715288648793910E+08, -5.548233910165852E+09, -6.219097012401774E+08,
2461764.500000000, A.D. 2027-Dec-25 00:00:00.0000, -8.684522332600678E+08, -5.548755303431736E+09, -6.223879357987189E+08,
2461771.500000000, A.D. 2028-Jan-01 00:00:00.0000, -8.653753167607791E+08, -5.549275226220211E+09, -6.228660030542023E+08,
$$EOE